CCSDS_OMM_VERS = 2.0
CREATION_DATE  = 
ORIGINATOR     = 

OBJECT_NAME    = SL-14 R/B
OBJECT_ID      = 1986-046B
CENTER_NAME    = EARTH
REF_FRAME      = TEME
TIME_SYSTEM    = UTC
MEAN_ELEMENT_THEORY = SGP/SGP4

EPOCH          = 2026-01-09T14:25:40.356192
MEAN_MOTION    = 14.85523081
ECCENTRICITY   = .00244266
INCLINATION    = 82.4832
RA_OF_ASC_NODE = 136.0031
ARG_OF_PERICENTER = 64.9618
MEAN_ANOMALY   = 295.4130

EPHEMERIS_TYPE = 0
CLASSIFICATION_TYPE = U
NORAD_CAT_ID   = 16792
ELEMENT_SET_NO = 999
REV_AT_EPOCH   = 11763
BSTAR          = .66144535E-4
MEAN_MOTION_DOT = .599E-5
MEAN_MOTION_DDOT = 0

CCSDS_OMM_VERS = 2.0
CREATION_DATE  = 
ORIGINATOR     = 

OBJECT_NAME    = SL-14 R/B
OBJECT_ID      = 1986-055B
CENTER_NAME    = EARTH
REF_FRAME      = TEME
TIME_SYSTEM    = UTC
MEAN_ELEMENT_THEORY = SGP/SGP4

EPOCH          = 2026-01-09T12:44:40.515936
MEAN_MOTION    = 14.85566448
ECCENTRICITY   = .00192901
INCLINATION    = 82.5200
RA_OF_ASC_NODE = 182.2575
ARG_OF_PERICENTER = 163.7767
MEAN_ANOMALY   = 256.5600

EPHEMERIS_TYPE = 0
CLASSIFICATION_TYPE = U
NORAD_CAT_ID   = 16882
ELEMENT_SET_NO = 999
REV_AT_EPOCH   = 11058
BSTAR          = .7257955E-4
MEAN_MOTION_DOT = .654E-5
MEAN_MOTION_DDOT = 0

CCSDS_OMM_VERS = 2.0
CREATION_DATE  = 
ORIGINATOR     = 

OBJECT_NAME    = AJISAI (EGS)
OBJECT_ID      = 1986-061A
CENTER_NAME    = EARTH
REF_FRAME      = TEME
TIME_SYSTEM    = UTC
MEAN_ELEMENT_THEORY = SGP/SGP4

EPOCH          = 2026-01-09T14:38:05.693568
MEAN_MOTION    = 12.44514814
ECCENTRICITY   = .00113066
INCLINATION    = 50.0094
RA_OF_ASC_NODE = 275.0202
ARG_OF_PERICENTER = 135.8846
MEAN_ANOMALY   = 294.3997

EPHEMERIS_TYPE = 0
CLASSIFICATION_TYPE = U
NORAD_CAT_ID   = 16908
ELEMENT_SET_NO = 999
REV_AT_EPOCH   = 46064
BSTAR          = .150109E-3
MEAN_MOTION_DOT = -.76E-6
MEAN_MOTION_DDOT = 0

CCSDS_OMM_VERS = 2.0
CREATION_DATE  = 
ORIGINATOR     = 

OBJECT_NAME    = COSMOS 1812
OBJECT_ID      = 1987-003A
CENTER_NAME    = EARTH
REF_FRAME      = TEME
TIME_SYSTEM    = UTC
MEAN_ELEMENT_THEORY = SGP/SGP4

EPOCH          = 2026-01-09T04:14:18.694464
MEAN_MOTION    = 15.82568392
ECCENTRICITY   = .0003753
INCLINATION    = 82.4834
RA_OF_ASC_NODE = 262.1758
ARG_OF_PERICENTER = 56.2989
MEAN_ANOMALY   = 303.8637

EPHEMERIS_TYPE = 0
CLASSIFICATION_TYPE = U
NORAD_CAT_ID   = 17295
ELEMENT_SET_NO = 999
REV_AT_EPOCH   = 13498
BSTAR          = .59987E-3
MEAN_MOTION_DOT = .126397E-2
MEAN_MOTION_DDOT = 0

CCSDS_OMM_VERS = 2.0
CREATION_DATE  = 
ORIGINATOR     = 

OBJECT_NAME    = SL-14 R/B
OBJECT_ID      = 1987-024B
CENTER_NAME    = EARTH
REF_FRAME      = TEME
TIME_SYSTEM    = UTC
MEAN_ELEMENT_THEORY = SGP/SGP4

EPOCH          = 2026-01-09T10:53:48.233472
MEAN_MOTION    = 14.86062860
ECCENTRICITY   = .00197293
INCLINATION    = 82.5293
RA_OF_ASC_NODE = 148.4203
ARG_OF_PERICENTER = 96.6043
MEAN_ANOMALY   = 263.7420

EPHEMERIS_TYPE = 0
CLASSIFICATION_TYPE = U
NORAD_CAT_ID   = 17567
ELEMENT_SET_NO = 999
REV_AT_EPOCH   = 7933
BSTAR          = .7554628E-4
MEAN_MOTION_DOT = .688E-5
MEAN_MOTION_DDOT = 0

CCSDS_OMM_VERS = 2.0
CREATION_DATE  = 
ORIGINATOR     = 

OBJECT_NAME    = COSMOS 1833
OBJECT_ID      = 1987-027A
CENTER_NAME    = EARTH
REF_FRAME      = TEME
TIME_SYSTEM    = UTC
MEAN_ELEMENT_THEORY = SGP/SGP4

EPOCH          = 2026-01-09T14:37:26.467104
MEAN_MOTION    = 14.13040005
ECCENTRICITY   = .00238794
INCLINATION    = 70.9188
RA_OF_ASC_NODE = 90.1946
ARG_OF_PERICENTER = 293.1677
MEAN_ANOMALY   = 66.6929

EPHEMERIS_TYPE = 0
CLASSIFICATION_TYPE = U
NORAD_CAT_ID   = 17589
ELEMENT_SET_NO = 999
REV_AT_EPOCH   = 197
BSTAR          = .20764568E-3
MEAN_MOTION_DOT = .34E-5
MEAN_MOTION_DDOT = 0

CCSDS_OMM_VERS = 2.0
CREATION_DATE  = 
ORIGINATOR     = 

OBJECT_NAME    = SL-16 R/B
OBJECT_ID      = 1987-027B
CENTER_NAME    = EARTH
REF_FRAME      = TEME
TIME_SYSTEM    = UTC
MEAN_ELEMENT_THEORY = SGP/SGP4

EPOCH          = 2026-01-09T13:01:00.076800
MEAN_MOTION    = 14.17158821
ECCENTRICITY   = .00066762
INCLINATION    = 71.0031
RA_OF_ASC_NODE = 41.1323
ARG_OF_PERICENTER = 229.9734
MEAN_ANOMALY   = 130.0804

EPHEMERIS_TYPE = 0
CLASSIFICATION_TYPE = U
NORAD_CAT_ID   = 17590
ELEMENT_SET_NO = 999
REV_AT_EPOCH   = 696
BSTAR          = .13891637E-3
MEAN_MOTION_DOT = .232E-5
MEAN_MOTION_DDOT = 0

CCSDS_OMM_VERS = 2.0
CREATION_DATE  = 
ORIGINATOR     = 

OBJECT_NAME    = SL-14 R/B
OBJECT_ID      = 1987-038B
CENTER_NAME    = EARTH
REF_FRAME      = TEME
TIME_SYSTEM    = UTC
MEAN_ELEMENT_THEORY = SGP/SGP4

EPOCH          = 2026-01-09T10:02:37.007232
MEAN_MOTION    = 14.85295836
ECCENTRICITY   = .00194287
INCLINATION    = 82.5019
RA_OF_ASC_NODE = 352.6275
ARG_OF_PERICENTER = 5.4661
MEAN_ANOMALY   = 354.6763

EPHEMERIS_TYPE = 0
CLASSIFICATION_TYPE = U
NORAD_CAT_ID   = 17912
ELEMENT_SET_NO = 999
REV_AT_EPOCH   = 7043
BSTAR          = .71626397E-4
MEAN_MOTION_DOT = .641E-5
MEAN_MOTION_DDOT = 0

CCSDS_OMM_VERS = 2.0
CREATION_DATE  = 
ORIGINATOR     = 

OBJECT_NAME    = COSMOS 1844
OBJECT_ID      = 1987-041A
CENTER_NAME    = EARTH
REF_FRAME      = TEME
TIME_SYSTEM    = UTC
MEAN_ELEMENT_THEORY = SGP/SGP4

EPOCH          = 2026-01-09T15:15:59.361408
MEAN_MOTION    = 14.14539252
ECCENTRICITY   = .00284217
INCLINATION    = 70.8991
RA_OF_ASC_NODE = 158.7334
ARG_OF_PERICENTER = 112.8235
MEAN_ANOMALY   = 247.5894

EPHEMERIS_TYPE = 0
CLASSIFICATION_TYPE = U
NORAD_CAT_ID   = 17973
ELEMENT_SET_NO = 999
REV_AT_EPOCH   = 99523
BSTAR          = -.12081806E-4
MEAN_MOTION_DOT = -.72E-6
MEAN_MOTION_DDOT = 0

CCSDS_OMM_VERS = 2.0
CREATION_DATE  = 
ORIGINATOR     = 

OBJECT_NAME    = SL-14 R/B
OBJECT_ID      = 1987-055B
CENTER_NAME    = EARTH
REF_FRAME      = TEME
TIME_SYSTEM    = UTC
MEAN_ELEMENT_THEORY = SGP/SGP4

EPOCH          = 2026-01-09T14:34:59.487744
MEAN_MOTION    = 14.85554617
ECCENTRICITY   = .00199929
INCLINATION    = 82.4979
RA_OF_ASC_NODE = 44.7205
ARG_OF_PERICENTER = 205.0500
MEAN_ANOMALY   = 154.9748

EPHEMERIS_TYPE = 0
CLASSIFICATION_TYPE = U
NORAD_CAT_ID   = 18153
ELEMENT_SET_NO = 999
REV_AT_EPOCH   = 6116
BSTAR          = .5199401E-4
MEAN_MOTION_DOT = .475E-5
MEAN_MOTION_DDOT = 0

CCSDS_OMM_VERS = 2.0
CREATION_DATE  = 
ORIGINATOR     = 

OBJECT_NAME    = COSMOS 1867
OBJECT_ID      = 1987-060A
CENTER_NAME    = EARTH
REF_FRAME      = TEME
TIME_SYSTEM    = UTC
MEAN_ELEMENT_THEORY = SGP/SGP4

EPOCH          = 2026-01-09T14:49:22.872576
MEAN_MOTION    = 14.31492077
ECCENTRICITY   = .0013794
INCLINATION    = 65.0111
RA_OF_ASC_NODE = 112.1342
ARG_OF_PERICENTER = 273.8290
MEAN_ANOMALY   = 86.1217

EPHEMERIS_TYPE = 0
CLASSIFICATION_TYPE = U
NORAD_CAT_ID   = 18187
ELEMENT_SET_NO = 999
REV_AT_EPOCH   = 1148
BSTAR          = .40645879E-4
MEAN_MOTION_DOT = .8E-7
MEAN_MOTION_DDOT = 0

CCSDS_OMM_VERS = 2.0
CREATION_DATE  = 
ORIGINATOR     = 

OBJECT_NAME    = SL-14 R/B
OBJECT_ID      = 1988-001B
CENTER_NAME    = EARTH
REF_FRAME      = TEME
TIME_SYSTEM    = UTC
MEAN_ELEMENT_THEORY = SGP/SGP4

EPOCH          = 2026-01-09T15:59:39.031872
MEAN_MOTION    = 14.85457684
ECCENTRICITY   = .00195683
INCLINATION    = 82.5119
RA_OF_ASC_NODE = 250.8820
ARG_OF_PERICENTER = 74.7046
MEAN_ANOMALY   = 285.6331

EPHEMERIS_TYPE = 0
CLASSIFICATION_TYPE = U
NORAD_CAT_ID   = 18749
ELEMENT_SET_NO = 999
REV_AT_EPOCH   = 3326
BSTAR          = .51469651E-4
MEAN_MOTION_DOT = .47E-5
MEAN_MOTION_DDOT = 0

