SL-14 R/B               
1 16792U 86046B   26009.60116153  .00000599  00000+0  66145-4 0  9997
2 16792  82.4832 136.0031 0024426  64.9618 295.4130 14.85523081117639
SL-14 R/B               
1 16882U 86055B   26009.53102449  .00000654  00000+0  72580-4 0  9994
2 16882  82.5200 182.2575 0019290 163.7767 256.5600 14.85566448110582
AJISAI (EGS)            
1 16908U 86061A   26009.60978812 -.00000076  00000+0  15011-3 0  9997
2 16908  50.0094 275.0202 0011306 135.8846 294.3997 12.44514814460645
COSMOS 1812             
1 17295U 87003A   26009.17660526  .00126397  00000+0  59987-3 0  9990
2 17295  82.4834 262.1758 0003753  56.2989 303.8637 15.82568392134987
SL-14 R/B               
1 17567U 87024B   26009.45403048  .00000688  00000+0  75546-4 0  9994
2 17567  82.5293 148.4203 0019729  96.6043 263.7420 14.86062860 79332
COSMOS 1833             
1 17589U 87027A   26009.60933411  .00000340  00000+0  20765-3 0  9997
2 17589  70.9188  90.1946 0023879 293.1677  66.6929 14.13040005  1971
SL-16 R/B               
1 17590U 87027B   26009.54236200  .00000232  00000+0  13892-3 0  9997
2 17590  71.0031  41.1323 0006676 229.9734 130.0804 14.17158821  6966
SL-14 R/B               
1 17912U 87038B   26009.41848388  .00000641  00000+0  71626-4 0  9993
2 17912  82.5019 352.6275 0019428   5.4661 354.6763 14.85295836 70432
COSMOS 1844             
1 17973U 87041A   26009.63610372 -.00000072  00000+0 -12082-4 0  9999
2 17973  70.8991 158.7334 0028421 112.8235 247.5894 14.14539252995236
SL-14 R/B               
1 18153U 87055B   26009.60763296  .00000475  00000+0  51994-4 0  9996
2 18153  82.4979  44.7205 0019992 205.0500 154.9748 14.85554617 61161
COSMOS 1867             
1 18187U 87060A   26009.61762584  .00000008  00000+0  40646-4 0  9993
2 18187  65.0111 112.1342 0013794 273.8290  86.1217 14.31492077 11487
SL-14 R/B               
1 18749U 88001B   26009.66642398  .00000470  00000+0  51470-4 0  9998
2 18749  82.5119 250.8820 0019568  74.7046 285.6331 14.85457684 33263
